0 FENGYUN 1C DEB
1 32217U 99025CVP 13283.52401816  .00002649  00000-0  11378-2 0  3700
2 32217 099.0860 027.4135 0058749 101.5541 259.2240 14.24693901321774
0 FENGYUN 1C DEB
1 32217U 99025CVP 13284.08585676  .00002710  00000-0  11640-2 0  3711
2 32217 099.0834 027.9889 0057744 100.2823 260.5278 14.24698567321857
0 FENGYUN 1C DEB
1 32217U 99025CVP 13288.08890111  .00002940  00000-0  12602-2 0  3723
2 32217 099.0859 032.1335 0058300 088.1106 272.7178 14.24725592322422
0 FENGYUN 1C DEB
1 32217U 99025CVP 13296.09476711  .00003572  00000-0  15246-2 0  3739
2 32217 099.0828 040.4151 0058199 064.4531 296.6488 14.24790397323561
